[{"OBJECT_NAME":"SMOS","OBJECT_ID":"2009-059A","EPOCH":"2026-03-28T12:06:28.892448","MEAN_MOTION":14.39773329,"ECCENTRICITY":9.34e-5,"INCLINATION":98.4435,"RA_OF_ASC_NODE":276.0122,"ARG_OF_PERICENTER":93.7272,"MEAN_ANOMALY":266.4023,"EPHEMERIS_TYPE":0,"CLASSIFICATION_TYPE":"U","NORAD_CAT_ID":36036,"ELEMENT_SET_NO":999,"REV_AT_EPOCH":86184,"BSTAR":0.00010878,"MEAN_MOTION_DOT":2.97e-6,"MEAN_MOTION_DDOT":0},{"OBJECT_NAME":"YAOGAN-7","OBJECT_ID":"2009-069A","EPOCH":"2026-03-28T14:11:58.663680","MEAN_MOTION":14.77922084,"ECCENTRICITY":0.00234588,"INCLINATION":98.018,"RA_OF_ASC_NODE":333.9138,"ARG_OF_PERICENTER":301.1116,"MEAN_ANOMALY":58.7792,"EPHEMERIS_TYPE":0,"CLASSIFICATION_TYPE":"U","NORAD_CAT_ID":36110,"ELEMENT_SET_NO":999,"REV_AT_EPOCH":87772,"BSTAR":9.8085259e-5,"MEAN_MOTION_DOT":6.56e-6,"MEAN_MOTION_DDOT":0},{"OBJECT_NAME":"TANDEM-X","OBJECT_ID":"2010-030A","EPOCH":"2026-03-27T12:21:40.897152","MEAN_MOTION":15.19152112,"ECCENTRICITY":0.0001681,"INCLINATION":97.4466,"RA_OF_ASC_NODE":95.3837,"ARG_OF_PERICENTER":88.6365,"MEAN_ANOMALY":271.5062,"EPHEMERIS_TYPE":0,"CLASSIFICATION_TYPE":"U","NORAD_CAT_ID":36605,"ELEMENT_SET_NO":999,"REV_AT_EPOCH":87424,"BSTAR":5.0024e-5,"MEAN_MOTION_DOT":9.84e-6,"MEAN_MOTION_DDOT":0},{"OBJECT_NAME":"CARTOSAT-2B","OBJECT_ID":"2010-035A","EPOCH":"2026-03-27T10:59:25.998720","MEAN_MOTION":14.78654353,"ECCENTRICITY":0.0012736,"INCLINATION":97.9753,"RA_OF_ASC_NODE":137.5018,"ARG_OF_PERICENTER":94.8962,"MEAN_ANOMALY":265.3704,"EPHEMERIS_TYPE":0,"CLASSIFICATION_TYPE":"U","NORAD_CAT_ID":36795,"ELEMENT_SET_NO":999,"REV_AT_EPOCH":84777,"BSTAR":0.00013576,"MEAN_MOTION_DOT":9.44e-6,"MEAN_MOTION_DDOT":0},{"OBJECT_NAME":"YAOGAN-10","OBJECT_ID":"2010-038A","EPOCH":"2026-03-28T15:36:29.602368","MEAN_MOTION":14.85089918,"ECCENTRICITY":0.00016009,"INCLINATION":97.9066,"RA_OF_ASC_NODE":111.683,"ARG_OF_PERICENTER":82.7,"MEAN_ANOMALY":31.0298,"EPHEMERIS_TYPE":0,"CLASSIFICATION_TYPE":"U","NORAD_CAT_ID":36834,"ELEMENT_SET_NO":999,"REV_AT_EPOCH":84525,"BSTAR":0.00029566186,"MEAN_MOTION_DOT":2.473e-5,"MEAN_MOTION_DDOT":0},{"OBJECT_NAME":"COSMO-SKYMED 4","OBJECT_ID":"2010-060A","EPOCH":"2026-03-28T08:43:34.949280","MEAN_MOTION":14.82160786,"ECCENTRICITY":0.00014971,"INCLINATION":97.8884,"RA_OF_ASC_NODE":272.1304,"ARG_OF_PERICENTER":81.379,"MEAN_ANOMALY":278.7593,"EPHEMERIS_TYPE":0,"CLASSIFICATION_TYPE":"U","NORAD_CAT_ID":37216,"ELEMENT_SET_NO":999,"REV_AT_EPOCH":83259,"BSTAR":2.4820267e-5,"MEAN_MOTION_DOT":1.45e-6,"MEAN_MOTION_DDOT":0},{"OBJECT_NAME":"RESOURCESAT-2","OBJECT_ID":"2011-015A","EPOCH":"2026-03-28T13:47:46.468032","MEAN_MOTION":14.22367568,"ECCENTRICITY":0.00095167,"INCLINATION":98.7711,"RA_OF_ASC_NODE":155.5437,"ARG_OF_PERICENTER":117.4063,"MEAN_ANOMALY":242.8083,"EPHEMERIS_TYPE":0,"CLASSIFICATION_TYPE":"U","NORAD_CAT_ID":37387,"ELEMENT_SET_NO":999,"REV_AT_EPOCH":77472,"BSTAR":-0.00013413724,"MEAN_MOTION_DOT":-3.43e-6,"MEAN_MOTION_DDOT":0},{"OBJECT_NAME":"HAIYANG-2A","OBJECT_ID":"2011-043A","EPOCH":"2026-03-27T12:08:48.902784","MEAN_MOTION":13.77309885,"ECCENTRICITY":0.0002981,"INCLINATION":99.3426,"RA_OF_ASC_NODE":90.8166,"ARG_OF_PERICENTER":235.6711,"MEAN_ANOMALY":124.4158,"EPHEMERIS_TYPE":0,"CLASSIFICATION_TYPE":"U","NORAD_CAT_ID":37781,"ELEMENT_SET_NO":999,"REV_AT_EPOCH":73542,"BSTAR":4.7349e-5,"MEAN_MOTION_DOT":3.0e-8,"MEAN_MOTION_DDOT":0},{"OBJECT_NAME":"RASAT","OBJECT_ID":"2011-044D","EPOCH":"2026-03-28T13:30:15.670368","MEAN_MOTION":14.68082931,"ECCENTRICITY":0.00220004,"INCLINATION":98.0544,"RA_OF_ASC_NODE":180.2078,"ARG_OF_PERICENTER":88.1897,"MEAN_ANOMALY":39.0625,"EPHEMERIS_TYPE":0,"CLASSIFICATION_TYPE":"U","NORAD_CAT_ID":37791,"ELEMENT_SET_NO":999,"REV_AT_EPOCH":78135,"BSTAR":9.509458e-5,"MEAN_MOTION_DOT":4.99e-6,"MEAN_MOTION_DDOT":0},{"OBJECT_NAME":"SRMSAT","OBJECT_ID":"2011-058D","EPOCH":"2026-03-28T15:03:09.076032","MEAN_MOTION":14.11554455,"ECCENTRICITY":0.00119142,"INCLINATION":19.9709,"RA_OF_ASC_NODE":187.0799,"ARG_OF_PERICENTER":37.8808,"MEAN_ANOMALY":350.3563,"EPHEMERIS_TYPE":0,"CLASSIFICATION_TYPE":"U","NORAD_CAT_ID":37841,"ELEMENT_SET_NO":999,"REV_AT_EPOCH":74642,"BSTAR":8.4528021e-5,"MEAN_MOTION_DOT":4.21e-6,"MEAN_MOTION_DDOT":0},{"OBJECT_NAME":"PLEIADES 1A","OBJECT_ID":"2011-076F","EPOCH":"2026-03-28T14:26:07.161792","MEAN_MOTION":14.58555749,"ECCENTRICITY":0.00015454,"INCLINATION":98.2013,"RA_OF_ASC_NODE":163.7735,"ARG_OF_PERICENTER":77.6955,"MEAN_ANOMALY":58.8939,"EPHEMERIS_TYPE":0,"CLASSIFICATION_TYPE":"U","NORAD_CAT_ID":38012,"ELEMENT_SET_NO":999,"REV_AT_EPOCH":76024,"BSTAR":0.00010911322,"MEAN_MOTION_DOT":4.62e-6,"MEAN_MOTION_DDOT":0},{"OBJECT_NAME":"ZIYUAN 1-02C (ZY 1-02C)","OBJECT_ID":"2011-079A","EPOCH":"2026-03-28T15:52:29.453664","MEAN_MOTION":14.38144123,"ECCENTRICITY":0.00064062,"INCLINATION":98.4137,"RA_OF_ASC_NODE":156.6351,"ARG_OF_PERICENTER":177.7803,"MEAN_ANOMALY":304.6964,"EPHEMERIS_TYPE":0,"CLASSIFICATION_TYPE":"U","NORAD_CAT_ID":38038,"ELEMENT_SET_NO":999,"REV_AT_EPOCH":74763,"BSTAR":0.00025738708,"MEAN_MOTION_DOT":7.38e-6,"MEAN_MOTION_DDOT":0},{"OBJECT_NAME":"ARIRANG-3 (KOMPSAT-3)","OBJECT_ID":"2012-025B","EPOCH":"2026-03-28T14:59:37.338144","MEAN_MOTION":14.62126842,"ECCENTRICITY":0.00058332,"INCLINATION":98.1094,"RA_OF_ASC_NODE":46.516,"ARG_OF_PERICENTER":21.1471,"MEAN_ANOMALY":338.9971,"EPHEMERIS_TYPE":0,"CLASSIFICATION_TYPE":"U","NORAD_CAT_ID":38338,"ELEMENT_SET_NO":999,"REV_AT_EPOCH":73957,"BSTAR":0.00012522235,"MEAN_MOTION_DOT":5.83e-6,"MEAN_MOTION_DDOT":0},{"OBJECT_NAME":"EXACTVIEW-1 (ADS-1B)","OBJECT_ID":"2012-039C","EPOCH":"2026-03-28T13:29:47.170464","MEAN_MOTION":14.2495836,"ECCENTRICITY":0.00115394,"INCLINATION":98.9659,"RA_OF_ASC_NODE":203.1784,"ARG_OF_PERICENTER":48.1913,"MEAN_ANOMALY":312.0249,"EPHEMERIS_TYPE":0,"CLASSIFICATION_TYPE":"U","NORAD_CAT_ID":38709,"ELEMENT_SET_NO":999,"REV_AT_EPOCH":71122,"BSTAR":7.7176891e-5,"MEAN_MOTION_DOT":1.34e-6,"MEAN_MOTION_DDOT":0},{"OBJECT_NAME":"SPOT 6","OBJECT_ID":"2012-047A","EPOCH":"2026-03-28T14:10:18.926976","MEAN_MOTION":14.58557028,"ECCENTRICITY":0.00014975,"INCLINATION":98.2184,"RA_OF_ASC_NODE":155.8196,"ARG_OF_PERICENTER":86.4533,"MEAN_ANOMALY":273.6838,"EPHEMERIS_TYPE":0,"CLASSIFICATION_TYPE":"U","NORAD_CAT_ID":38755,"ELEMENT_SET_NO":999,"REV_AT_EPOCH":72130,"BSTAR":0.00013102178,"MEAN_MOTION_DOT":5.63e-6,"MEAN_MOTION_DDOT":0},{"OBJECT_NAME":"PLEIADES 1B","OBJECT_ID":"2012-068A","EPOCH":"2026-03-28T12:59:24.847584","MEAN_MOTION":14.5854346,"ECCENTRICITY":0.00014013,"INCLINATION":98.1984,"RA_OF_ASC_NODE":163.6906,"ARG_OF_PERICENTER":77.5025,"MEAN_ANOMALY":282.6331,"EPHEMERIS_TYPE":0,"CLASSIFICATION_TYPE":"U","NORAD_CAT_ID":39019,"ELEMENT_SET_NO":999,"REV_AT_EPOCH":70909,"BSTAR":0.00014557217,"MEAN_MOTION_DOT":6.31e-6,"MEAN_MOTION_DDOT":0},{"OBJECT_NAME":"GOKTURK 2","OBJECT_ID":"2012-073A","EPOCH":"2026-03-28T14:01:43.770432","MEAN_MOTION":14.75458427,"ECCENTRICITY":9.009e-5,"INCLINATION":97.6883,"RA_OF_ASC_NODE":289.0316,"ARG_OF_PERICENTER":101.6686,"MEAN_ANOMALY":258.4625,"EPHEMERIS_TYPE":0,"CLASSIFICATION_TYPE":"U","NORAD_CAT_ID":39030,"ELEMENT_SET_NO":999,"REV_AT_EPOCH":71262,"BSTAR":9.0243773e-5,"MEAN_MOTION_DOT":5.66e-6,"MEAN_MOTION_DDOT":0}]
