SMOS                    
1 36036U 09059A   26087.50450107  .00000297  00000+0  10878-3 0  9990
2 36036  98.4435 276.0122 0000934  93.7272 266.4023 14.39773329861847
YAOGAN-7                
1 36110U 09069A   26087.59165120  .00000656  00000+0  98085-4 0  9997
2 36110  98.0180 333.9138 0023458 301.1116  58.7792 14.77922084877727
TANDEM-X                
1 36605U 10030A   26086.51505668  .00000984  00000+0  50024-4 0  9997
2 36605  97.4466  95.3837 0001681  88.6365 271.5062 15.19152112874241
CARTOSAT-2B             
1 36795U 10035A   26086.45793980  .00000944  00000+0  13576-3 0  9997
2 36795  97.9753 137.5018 0012736  94.8962 265.3704 14.78654353847770
YAOGAN-10               
1 36834U 10038A   26087.65034262  .00002473  00000+0  29566-3 0  9993
2 36834  97.9066 111.6830 0001600  82.7000  31.0298 14.85089918845257
COSMO-SKYMED 4          
1 37216U 10060A   26087.36359895  .00000145  00000+0  24820-4 0  9996
2 37216  97.8884 272.1304 0001497  81.3790 278.7593 14.82160786832594
RESOURCESAT-2           
1 37387U 11015A   26087.57484338 -.00000343  00000+0 -13414-3 0  9998
2 37387  98.7711 155.5437 0009516 117.4063 242.8083 14.22367568774724
HAIYANG-2A              
1 37781U 11043A   26086.50612156  .00000003  00000+0  47349-4 0  9996
2 37781  99.3426  90.8166 0002981 235.6711 124.4158 13.77309885735423
RASAT                   
1 37791U 11044D   26087.56268137  .00000499  00000+0  95095-4 0  9991
2 37791  98.0544 180.2078 0022000  88.1897  39.0625 14.68082931781351
SRMSAT                  
1 37841U 11058D   26087.62718838  .00000421  00000+0  84528-4 0  9991
2 37841  19.9709 187.0799 0011914  37.8808 350.3563 14.11554455746424
PLEIADES 1A             
1 38012U 11076F   26087.60147178  .00000462  00000+0  10911-3 0  9992
2 38012  98.2013 163.7735 0001545  77.6955  58.8939 14.58555749760249
ZIYUAN 1-02C (ZY 1-02C) 
1 38038U 11079A   26087.66145201  .00000738  00000+0  25739-3 0  9994
2 38038  98.4137 156.6351 0006406 177.7803 304.6964 14.38144123747632
ARIRANG-3 (KOMPSAT-3)   
1 38338U 12025B   26087.62473771  .00000583  00000+0  12522-3 0  9995
2 38338  98.1094  46.5160 0005833  21.1471 338.9971 14.62126842739572
EXACTVIEW-1 (ADS-1B)    
1 38709U 12039C   26087.56235151  .00000134  00000+0  77177-4 0  9993
2 38709  98.9659 203.1784 0011539  48.1913 312.0249 14.24958360711221
SPOT 6                  
1 38755U 12047A   26087.59049684  .00000563  00000+0  13102-3 0  9993
2 38755  98.2184 155.8196 0001497  86.4533 273.6838 14.58557028721302
PLEIADES 1B             
1 39019U 12068A   26087.54125981  .00000631  00000+0  14557-3 0  9991
2 39019  98.1984 163.6906 0001401  77.5025 282.6331 14.58543460709096
GOKTURK 2               
1 39030U 12073A   26087.58453438  .00000566  00000+0  90244-4 0  9990
2 39030  97.6883 289.0316 0000900 101.6686 258.4625 14.75458427712621
